LEMUR-2-VALHALLA        
1 58900U 24022B   26196.53322804  .00010013  00000+0  24866-3 0  9996
2 58900  97.4075  46.8786 0009180  23.0529 337.1127 15.40495238136638
LEMUR-2-CAEL            
1 58903U 24022E   26196.51853263  .00011187  00000+0  26543-3 0  9992
2 58903  97.4056  47.8506 0007093   8.4188 351.7176 15.41863619136707
LEMUR-2-JOHNNYTRUONG    
1 59146U 24043BA  26196.47405403  .00029938  00000+0  33624-3 0  9990
2 59146  97.5393 349.9778 0004048  92.9286 267.2436 15.62579202132456
LEMUR-2-TOMATOKECHUP    
1 60471U 24149D   26196.76571545  .00006660  00000+0  18874-3 0  9990
2 60471  97.3798 278.8952 0003312 121.5505 238.6063 15.36590795106557
LEMUR-2-STELLA          
1 60533U 24149BT  26196.73536930  .00005975  00000+0  34817-3 0  9998
2 60533  97.6737 279.3258 0001241 118.9056 241.2299 15.12378243104811
LEMUR-2-MARHISYAM       
1 60536U 24149BW  26196.79268113  .00006358  00000+0  37630-3 0  9994
2 60536  97.6878 279.8606 0002353  68.7534 291.3947 15.11785796104809
LEMUR-2-AHMED-ASRAR     
1 60576U 24149DN  26196.79858630  .00006960  00000+0  39452-3 0  9990
2 60576  97.7005 282.0723 0001277 205.5723 154.5445 15.13314789104891
LEMUR-2-LLOYD           
1 60577U 24149DP  26196.74512564  .00005332  00000+0  33429-3 0  9999
2 60577  97.6747 277.8984 0004764  71.1619 289.0126 15.09757819104700
LEMUR-2-SQUIRRELCOMM    
1 60578U 24149DQ  26196.93371215  .00002251  00000+0  15271-3 0  9999
2 60578  97.6709 277.7592 0004048 324.3852  35.7105 15.07450137104737
LEMUR-2-SIERRINI        
1 60579U 24149DR  26196.75547602  .00005771  00000+0  34433-3 0  9996
2 60579  97.6843 279.4842 0006482  88.9265 271.2707 15.11519717104773
LEMUR-2-WILSON          
1 62694U 25009CP  26196.73719385  .00000744  00000+0  72753-4 0  9992
2 62694  97.7021 274.7014 0001987 321.9983  38.1097 14.95277647 81627
LEMUR-2-STAR-FOX        
1 62696U 25009CR  26196.19343779  .00003389  00000+0  25750-3 0  9996
2 62696  97.6910 277.6011 0002230  42.2446 317.8950 15.02840720 81760
LEMUR-2-ARIANNA         
1 62699U 25009CU  26196.79114255  .00004081  00000+0  30907-3 0  9990
2 62699  97.6850 277.9462 0002485  46.8705 313.2728 15.02848472 81854
LEMUR-2-ALISIA          
1 62706U 25009DB  26196.76337881  .00004170  00000+0  31293-3 0  9996
2 62706  97.6973 278.7448 0004380 127.5198 232.6426 15.03180364104452
LEMUR-2-ROUNDTRIPPER    
1 62711U 25009DG  26196.76816895  .00004569  00000+0  33300-3 0  9992
2 62711  97.7252 279.4125 0004479  62.8662 297.3020 15.04237419 81924
LEMUR-2-MYNAMEISJEFF    
1 62712U 25009DH  26196.76665947  .00004503  00000+0  32837-3 0  9995
2 62712  97.7301 279.8094 0004115  96.2499 263.9195 15.04228449 81920
